<?xml version="1.0" encoding="UTF-8"?>
<kml xmlns="http://www.opengis.net/kml/2.2"><Document><name>Mixed geometry</name><Folder><name>Valid</name><Placemark id="f1"><name>Field 1</name><ExtendedData><Data name="crop"><value>ragi</value></Data></ExtendedData><Polygon><outerBoundaryIs><LinearRing><coordinates>77.553009010,12.941055297,0 77.554851048,12.941037249,0 77.554869456,12.942843992,0 77.553027405,12.942862042,0 77.553009010,12.941055297,0</coordinates></LinearRing></outerBoundaryIs></Polygon></Placemark><Placemark id="f2"><name>Field 2</name><ExtendedData><Data name="crop"><value>maize</value></Data></ExtendedData><Polygon><outerBoundaryIs><LinearRing><coordinates>77.555772066,12.941028220,0 77.558535115,12.941001115,0 77.558562768,12.943711221,0 77.555799689,12.943738332,0 77.555772066,12.941028220,0</coordinates></LinearRing></outerBoundaryIs></Polygon></Placemark><Placemark id="canal"><name>Canal</name><ExtendedData><Data name="kind"><value>irrigation</value></Data></ExtendedData><LineString><coordinates>77.553004411,12.940603611,0 77.562214556,12.940513245,0</coordinates></LineString></Placemark><Placemark id="well"><name>Well</name><Point><coordinates>77.553939230,12.941949647,0</coordinates></Point></Placemark></Folder><Folder><name>Problems</name><Placemark id="bowtie"><name>Bow-tie</name><Polygon><outerBoundaryIs><LinearRing><coordinates>77.553045803,12.944668787,0 77.554906281,12.946457477,0 77.554887867,12.944650734,0 77.553064204,12.946475532,0 77.553045803,12.944668787,0</coordinates></LinearRing></outerBoundaryIs></Polygon></Placemark><Placemark id="broken"><name>Broken coords</name><Polygon><outerBoundaryIs><LinearRing><coordinates>77.6,12.9,0 not-a-number 77.7</coordinates></LinearRing></outerBoundaryIs></Polygon></Placemark><Placemark id="combo"><name>Point + Line</name><MultiGeometry><Point><coordinates>77.553009010,12.941055297,0</coordinates></Point><LineString><coordinates>77.553009010,12.941055297,0 77.553101112,12.941054395,0</coordinates></LineString></MultiGeometry></Placemark></Folder></Document></kml>
