<?xml version="1.0" encoding="UTF-8"?>
<kml xmlns="http://www.opengis.net/kml/2.2"><Document><name>Polygons</name><Placemark id="parcel-a"><name>Parcel A</name><ExtendedData><Data name="owner"><value>Survey Dept</value></Data><Data name="zone"><value>R1</value></Data></ExtendedData><Polygon><outerBoundaryIs><LinearRing><coordinates>77.553009010,12.941055297,0 77.562219171,12.940964928,0 77.562311506,12.949998587,0 77.553101013,12.950089021,0 77.553009010,12.941055297,0</coordinates></LinearRing></outerBoundaryIs></Polygon></Placemark><Placemark id="parcel-b"><name>Parcel B</name><ExtendedData><Data name="owner"><value>Municipal</value></Data><Data name="zone"><value>C2</value></Data></ExtendedData><Polygon><outerBoundaryIs><LinearRing><coordinates>77.566824225,12.940919622,0 77.570508256,12.940883319,0 77.570531408,12.943141719,0 77.566847344,12.943178029,0 77.566824225,12.940919622,0</coordinates></LinearRing></outerBoundaryIs><innerBoundaryIs><LinearRing><coordinates>77.567749859,12.941362232,0 77.568670869,12.941353158,0 77.568680123,12.942256519,0 77.567759110,12.942265594,0 77.567749859,12.941362232,0</coordinates></LinearRing></innerBoundaryIs></Polygon></Placemark></Document></kml>
